[{"OBJECT_NAME":"FENGYUN 1C DEB","OBJECT_ID":"1999-025APJ","EPOCH":"2026-03-07T15:06:27.326016","MEAN_MOTION":14.07838749,"ECCENTRICITY":0.00087534,"INCLINATION":98.7741,"RA_OF_ASC_NODE":102.4173,"ARG_OF_PERICENTER":33.9296,"MEAN_ANOMALY":87.615,"EPHEMERIS_TYPE":0,"CLASSIFICATION_TYPE":"U","NORAD_CAT_ID":30652,"ELEMENT_SET_NO":999,"REV_AT_EPOCH":97888,"BSTAR":0.00016288677,"MEAN_MOTION_DOT":2.33e-6,"MEAN_MOTION_DDOT":0},{"OBJECT_NAME":"FENGYUN 1C DEB","OBJECT_ID":"1999-025APL","EPOCH":"2026-03-07T07:36:53.604576","MEAN_MOTION":14.17538497,"ECCENTRICITY":0.0033295,"INCLINATION":99.2452,"RA_OF_ASC_NODE":357.8967,"ARG_OF_PERICENTER":220.6296,"MEAN_ANOMALY":139.2392,"EPHEMERIS_TYPE":0,"CLASSIFICATION_TYPE":"U","NORAD_CAT_ID":30654,"ELEMENT_SET_NO":999,"REV_AT_EPOCH":97878,"BSTAR":0.001281,"MEAN_MOTION_DOT":2.567e-5,"MEAN_MOTION_DDOT":0},{"OBJECT_NAME":"FENGYUN 1C DEB","OBJECT_ID":"1999-025APN","EPOCH":"2026-03-07T11:18:26.700768","MEAN_MOTION":14.47002155,"ECCENTRICITY":0.00314316,"INCLINATION":99.0233,"RA_OF_ASC_NODE":250.9538,"ARG_OF_PERICENTER":195.3086,"MEAN_ANOMALY":164.7156,"EPHEMERIS_TYPE":0,"CLASSIFICATION_TYPE":"U","NORAD_CAT_ID":30656,"ELEMENT_SET_NO":999,"REV_AT_EPOCH":98310,"BSTAR":0.0034489883,"MEAN_MOTION_DOT":0.00012594,"MEAN_MOTION_DDOT":0},{"OBJECT_NAME":"FENGYUN 1C DEB","OBJECT_ID":"1999-025APP","EPOCH":"2026-03-07T05:46:11.016192","MEAN_MOTION":14.39960452,"ECCENTRICITY":0.0017515,"INCLINATION":98.8318,"RA_OF_ASC_NODE":171.8203,"ARG_OF_PERICENTER":102.8408,"MEAN_ANOMALY":318.3189,"EPHEMERIS_TYPE":0,"CLASSIFICATION_TYPE":"U","NORAD_CAT_ID":30657,"ELEMENT_SET_NO":999,"REV_AT_EPOCH":98448,"BSTAR":0.0029652,"MEAN_MOTION_DOT":9.314e-5,"MEAN_MOTION_DDOT":0},{"OBJECT_NAME":"FENGYUN 1C DEB","OBJECT_ID":"1999-025APQ","EPOCH":"2026-03-07T00:28:39.245088","MEAN_MOTION":13.87625817,"ECCENTRICITY":0.0180556,"INCLINATION":98.43,"RA_OF_ASC_NODE":95.3451,"ARG_OF_PERICENTER":356.315,"MEAN_ANOMALY":3.6668,"EPHEMERIS_TYPE":0,"CLASSIFICATION_TYPE":"U","NORAD_CAT_ID":30658,"ELEMENT_SET_NO":999,"REV_AT_EPOCH":95853,"BSTAR":0.001886914,"MEAN_MOTION_DOT":2.502e-5,"MEAN_MOTION_DDOT":0},{"OBJECT_NAME":"FENGYUN 1C DEB","OBJECT_ID":"1999-025APS","EPOCH":"2026-03-06T06:29:56.923872","MEAN_MOTION":14.89245065,"ECCENTRICITY":0.01344282,"INCLINATION":98.1339,"RA_OF_ASC_NODE":168.9725,"ARG_OF_PERICENTER":61.4864,"MEAN_ANOMALY":324.6631,"EPHEMERIS_TYPE":0,"CLASSIFICATION_TYPE":"U","NORAD_CAT_ID":30660,"ELEMENT_SET_NO":999,"REV_AT_EPOCH":2027,"BSTAR":0.00066823771,"MEAN_MOTION_DOT":7.433e-5,"MEAN_MOTION_DDOT":0},{"OBJECT_NAME":"FENGYUN 1C DEB","OBJECT_ID":"1999-025APT","EPOCH":"2026-03-07T10:53:02.335200","MEAN_MOTION":14.21225184,"ECCENTRICITY":0.01442766,"INCLINATION":99.4929,"RA_OF_ASC_NODE":253.4327,"ARG_OF_PERICENTER":166.3058,"MEAN_ANOMALY":194.2096,"EPHEMERIS_TYPE":0,"CLASSIFICATION_TYPE":"U","NORAD_CAT_ID":30661,"ELEMENT_SET_NO":999,"REV_AT_EPOCH":99105,"BSTAR":0.00025466086,"MEAN_MOTION_DOT":5.66e-6,"MEAN_MOTION_DDOT":0},{"OBJECT_NAME":"FENGYUN 1C DEB","OBJECT_ID":"1999-025APU","EPOCH":"2026-03-07T03:36:47.849184","MEAN_MOTION":14.22934588,"ECCENTRICITY":0.00319199,"INCLINATION":99.0424,"RA_OF_ASC_NODE":129.6842,"ARG_OF_PERICENTER":34.1876,"MEAN_ANOMALY":352.4647,"EPHEMERIS_TYPE":0,"CLASSIFICATION_TYPE":"U","NORAD_CAT_ID":30662,"ELEMENT_SET_NO":999,"REV_AT_EPOCH":97839,"BSTAR":0.0012136513,"MEAN_MOTION_DOT":2.698e-5,"MEAN_MOTION_DDOT":0},{"OBJECT_NAME":"FENGYUN 1C DEB","OBJECT_ID":"1999-025APV","EPOCH":"2026-03-07T12:13:05.106432","MEAN_MOTION":13.24076152,"ECCENTRICITY":0.0651676,"INCLINATION":99.3018,"RA_OF_ASC_NODE":339.9516,"ARG_OF_PERICENTER":291.7443,"MEAN_ANOMALY":61.5557,"EPHEMERIS_TYPE":0,"CLASSIFICATION_TYPE":"U","NORAD_CAT_ID":30663,"ELEMENT_SET_NO":999,"REV_AT_EPOCH":90169,"BSTAR":0.0021295774,"MEAN_MOTION_DOT":2.831e-5,"MEAN_MOTION_DDOT":0},{"OBJECT_NAME":"FENGYUN 1C DEB","OBJECT_ID":"1999-025APX","EPOCH":"2026-03-07T09:43:27.239232","MEAN_MOTION":14.12925201,"ECCENTRICITY":0.00687224,"INCLINATION":99.2152,"RA_OF_ASC_NODE":45.3692,"ARG_OF_PERICENTER":326.2724,"MEAN_ANOMALY":187.5507,"EPHEMERIS_TYPE":0,"CLASSIFICATION_TYPE":"U","NORAD_CAT_ID":30665,"ELEMENT_SET_NO":999,"REV_AT_EPOCH":97165,"BSTAR":0.0024557515,"MEAN_MOTION_DOT":4.632e-5,"MEAN_MOTION_DDOT":0},{"OBJECT_NAME":"FENGYUN 1C DEB","OBJECT_ID":"1999-025APY","EPOCH":"2026-03-07T11:18:52.301088","MEAN_MOTION":14.02670239,"ECCENTRICITY":0.00597829,"INCLINATION":98.8353,"RA_OF_ASC_NODE":52.4821,"ARG_OF_PERICENTER":268.7061,"MEAN_ANOMALY":220.2941,"EPHEMERIS_TYPE":0,"CLASSIFICATION_TYPE":"U","NORAD_CAT_ID":30666,"ELEMENT_SET_NO":999,"REV_AT_EPOCH":97298,"BSTAR":0.00052270166,"MEAN_MOTION_DOT":7.76e-6,"MEAN_MOTION_DDOT":0},{"OBJECT_NAME":"FENGYUN 1C DEB","OBJECT_ID":"1999-025AQA","EPOCH":"2026-03-07T16:06:32.182848","MEAN_MOTION":14.12868656,"ECCENTRICITY":0.00756885,"INCLINATION":99.1218,"RA_OF_ASC_NODE":146.323,"ARG_OF_PERICENTER":8.9316,"MEAN_ANOMALY":147.6486,"EPHEMERIS_TYPE":0,"CLASSIFICATION_TYPE":"U","NORAD_CAT_ID":30668,"ELEMENT_SET_NO":999,"REV_AT_EPOCH":97254,"BSTAR":0.0016279526,"MEAN_MOTION_DOT":3.066e-5,"MEAN_MOTION_DDOT":0},{"OBJECT_NAME":"FENGYUN 1C DEB","OBJECT_ID":"1999-025AQB","EPOCH":"2026-03-03T19:18:46.995840","MEAN_MOTION":14.03175821,"ECCENTRICITY":0.0118828,"INCLINATION":98.64,"RA_OF_ASC_NODE":0.3589,"ARG_OF_PERICENTER":310.0584,"MEAN_ANOMALY":105.1336,"EPHEMERIS_TYPE":0,"CLASSIFICATION_TYPE":"U","NORAD_CAT_ID":30669,"ELEMENT_SET_NO":999,"REV_AT_EPOCH":96590,"BSTAR":0.002028,"MEAN_MOTION_DOT":3.321e-5,"MEAN_MOTION_DDOT":0},{"OBJECT_NAME":"FENGYUN 1C DEB","OBJECT_ID":"1999-025AQC","EPOCH":"2026-03-07T09:45:41.898816","MEAN_MOTION":14.15860607,"ECCENTRICITY":0.0039008,"INCLINATION":98.6966,"RA_OF_ASC_NODE":113.885,"ARG_OF_PERICENTER":184.8544,"MEAN_ANOMALY":303.9017,"EPHEMERIS_TYPE":0,"CLASSIFICATION_TYPE":"U","NORAD_CAT_ID":30670,"ELEMENT_SET_NO":999,"REV_AT_EPOCH":98350,"BSTAR":0.00014454862,"MEAN_MOTION_DOT":2.43e-6,"MEAN_MOTION_DDOT":0},{"OBJECT_NAME":"FENGYUN 1C DEB","OBJECT_ID":"1999-025AQD","EPOCH":"2026-03-07T10:04:54.539616","MEAN_MOTION":13.95818634,"ECCENTRICITY":0.01289025,"INCLINATION":99.2404,"RA_OF_ASC_NODE":136.4383,"ARG_OF_PERICENTER":162.2884,"MEAN_ANOMALY":331.5692,"EPHEMERIS_TYPE":0,"CLASSIFICATION_TYPE":"U","NORAD_CAT_ID":30671,"ELEMENT_SET_NO":999,"REV_AT_EPOCH":96376,"BSTAR":0.0017931095,"MEAN_MOTION_DOT":2.581e-5,"MEAN_MOTION_DDOT":0},{"OBJECT_NAME":"FENGYUN 1C DEB","OBJECT_ID":"1999-025AQF","EPOCH":"2026-03-07T02:31:35.041152","MEAN_MOTION":14.03506645,"ECCENTRICITY":0.005058,"INCLINATION":98.9045,"RA_OF_ASC_NODE":118.5784,"ARG_OF_PERICENTER":268.0864,"MEAN_ANOMALY":120.3298,"EPHEMERIS_TYPE":0,"CLASSIFICATION_TYPE":"U","NORAD_CAT_ID":30673,"ELEMENT_SET_NO":999,"REV_AT_EPOCH":97715,"BSTAR":3.8539435e-5,"MEAN_MOTION_DOT":1.7e-7,"MEAN_MOTION_DDOT":0}]
