FENGYUN 1C DEB          
1 30652U 99025APJ 26066.62948294  .00000233  00000+0  16289-3 0  9991
2 30652  98.7741 102.4173 0008753  33.9296  87.6150 14.07838749978885
FENGYUN 1C DEB          
1 30654U 99025APL 26066.31728709  .00002567  00000+0  12810-2 0  9993
2 30654  99.2452 357.8967 0033295 220.6296 139.2392 14.17538497978782
FENGYUN 1C DEB          
1 30656U 99025APN 26066.47114237  .00012594  00000+0  34490-2 0  9996
2 30656  99.0233 250.9538 0031431 195.3086 164.7156 14.47002155983104
FENGYUN 1C DEB          
1 30657U 99025APP 26066.24040528  .00009314  00000+0  29652-2 0  9993
2 30657  98.8318 171.8203 0017515 102.8408 318.3189 14.39960452984483
FENGYUN 1C DEB          
1 30658U 99025APQ 26066.01989867  .00002502  00000+0  18869-2 0  9997
2 30658  98.4300  95.3451 0180556 356.3150   3.6668 13.87625817958530
FENGYUN 1C DEB          
1 30660U 99025APS 26065.27079773  .00007433  00000+0  66824-3 0  9996
2 30660  98.1339 168.9725 0134428  61.4864 324.6631 14.89245065 20279
FENGYUN 1C DEB          
1 30661U 99025APT 26066.45349925  .00000566  00000+0  25466-3 0  9994
2 30661  99.4929 253.4327 0144276 166.3058 194.2096 14.21225184991054
FENGYUN 1C DEB          
1 30662U 99025APU 26066.15055381  .00002698  00000+0  12137-2 0  9990
2 30662  99.0424 129.6842 0031919  34.1876 352.4647 14.22934588978394
FENGYUN 1C DEB          
1 30663U 99025APV 26066.50908688  .00002831  00000+0  21296-2 0  9992
2 30663  99.3018 339.9516 0651676 291.7443  61.5557 13.24076152901692
FENGYUN 1C DEB          
1 30665U 99025APX 26066.40517638  .00004632  00000+0  24558-2 0  9999
2 30665  99.2152  45.3692 0068722 326.2724 187.5507 14.12925201971658
FENGYUN 1C DEB          
1 30666U 99025APY 26066.47143867  .00000776  00000+0  52270-3 0  9994
2 30666  98.8353  52.4821 0059782 268.7061 220.2941 14.02670239972981
FENGYUN 1C DEB          
1 30668U 99025AQA 26066.67120582  .00003066  00000+0  16280-2 0  9992
2 30668  99.1218 146.3230 0075688   8.9316 147.6486 14.12868656972545
FENGYUN 1C DEB          
1 30669U 99025AQB 26062.80471060  .00003321  00000+0  20280-2 0  9993
2 30669  98.6400   0.3589 0118828 310.0584 105.1336 14.03175821965907
FENGYUN 1C DEB          
1 30670U 99025AQC 26066.40673494  .00000243  00000+0  14455-3 0  9998
2 30670  98.6966 113.8850 0039008 184.8544 303.9017 14.15860607983508
FENGYUN 1C DEB          
1 30671U 99025AQD 26066.42007569  .00002581  00000+0  17931-2 0  9993
2 30671  99.2404 136.4383 0128902 162.2884 331.5692 13.95818634963766
FENGYUN 1C DEB          
1 30673U 99025AQF 26066.10526668  .00000017  00000+0  38539-4 0  9997
2 30673  98.9045 118.5784 0050580 268.0864 120.3298 14.03506645977150
